OBJECT_NAME,OBJECT_ID,EPOCH,MEAN_MOTION,ECCENTRICITY,INCLINATION,RA_OF_ASC_NODE,ARG_OF_PERICENTER,MEAN_ANOMALY,EPHEMERIS_TYPE,CLASSIFICATION_TYPE,NORAD_CAT_ID,ELEMENT_SET_NO,REV_AT_EPOCH,BSTAR,MEAN_MOTION_DOT,MEAN_MOTION_DDOT
STARLINK-4169,2022-086AQ,2026-06-13T23:44:15.540864,15.08835928,.00013334,53.1603,66.4128,91.9644,268.1500,0,U,53280,999,21637,.41760742E-4,.377E-5,0
STARLINK-4164,2022-086AS,2026-06-14T03:02:24.033120,15.08823250,.000141,53.1610,111.1201,96.2435,263.8717,0,U,53282,999,21575,.11891E-3,.1604E-4,0
STARLINK-4175,2022-086AT,2026-06-14T02:46:28.824096,15.08833200,.00009498,53.1602,111.1737,76.7415,283.3683,0,U,53283,999,21575,.22328202E-4,.67E-6,0
STARLINK-4173,2022-086AV,2026-06-14T13:38:15.182592,15.08864095,.0001319,53.1600,109.1364,133.4704,226.6398,0,U,53285,999,21581,.19197247E-3,.2771E-4,0
STARLINK-4165,2022-086AW,2026-06-14T13:06:26.637696,15.08835207,.00016329,53.1620,108.9315,95.9762,264.1415,0,U,53286,999,21581,-.73127614E-4,-.1452E-4,0
STARLINK-4107,2022-086AX,2026-06-14T13:27:42.389856,15.08822007,.00017783,53.1604,109.1700,72.5178,287.6007,0,U,53287,999,21581,.24210084E-3,.3565E-4,0
STARLINK-4162,2022-086AY,2026-06-14T13:43:34.667328,15.08838569,.00013815,53.1605,109.1209,89.0819,271.0331,0,U,53288,999,21581,.29659794E-4,.184E-5,0
STARLINK-4176,2022-086AZ,2026-06-14T03:21:36.918432,15.08829968,.00014839,53.1606,106.2061,91.2562,268.8599,0,U,53289,999,21581,.13710273E-4,-.7E-6,0
STARLINK-4149,2022-086BA,2026-06-14T03:57:33.126336,15.09130894,.00016197,53.2156,111.0088,73.9729,286.1442,0,U,53290,999,21575,.99486555E-3,.15707E-3,0
STARLINK-4166,2022-086BB,2026-06-14T02:33:51.207552,15.08835107,.00013384,53.1606,106.0020,84.1339,275.9805,0,U,53291,999,21581,.25973571E-4,.125E-5,0
STARLINK-4159,2022-086BC,2026-06-14T13:48:54.701568,15.08832332,.00013691,53.1604,109.2866,87.3868,272.7280,0,U,53292,999,21581,.12087984E-4,-.96E-6,0
STARLINK-4148,2022-086BD,2026-06-14T12:41:22.144128,15.08838500,.00013788,53.1591,99.3011,69.8731,290.2409,0,U,53293,999,21594,.13696083E-3,.1892E-4,0
STARLINK-4146,2022-086BE,2026-06-14T13:07:46.575840,15.08838759,.00013464,53.1611,99.0669,89.6466,270.4680,0,U,53294,999,21599,.80837814E-4,.999E-5,0
STARLINK-4522,2022-097A,2026-06-13T23:17:09.370176,15.08834135,.0001349,53.1593,51.8242,93.4375,266.6771,0,U,53388,999,21338,.88768E-5,-.147E-5,0
STARLINK-4523,2022-097B,2026-06-13T23:06:33.420384,15.08836096,.0001601,53.1608,51.8565,91.5695,268.5480,0,U,53389,999,21320,.1516E-4,-.47E-6,0
STARLINK-4517,2022-097C,2026-06-13T23:11:51.612576,15.08831627,.0001343,53.1603,51.8412,90.7418,269.3727,0,U,53390,999,21335,.2774E-5,-.244E-5,0
STARLINK-4521,2022-097D,2026-06-13T23:01:15.141792,15.08841668,.0001307,53.1606,51.8739,87.4456,272.6685,0,U,53391,999,21320,.63606E-4,.725E-5,0
STARLINK-4535,2022-097E,2026-06-14T09:58:21.827424,15.08830920,.00012567,53.1597,49.8231,83.7183,276.3952,0,U,53392,999,21327,.91596963E-4,.117E-4,0
STARLINK-4530,2022-097F,2026-06-14T10:03:39.568608,15.08835841,.00013488,53.1604,49.8064,84.3374,275.7772,0,U,53393,999,21327,.34453591E-4,.26E-5,0
STARLINK-4544,2022-097G,2026-06-13T23:13:07.476960,15.08829713,.00012316,53.1588,41.4461,82.5350,277.5782,0,U,53394,999,21335,.17465221E-4,-.1E-6,0
STARLINK-4534,2022-097H,2026-06-14T09:54:26.632800,15.08834211,.00013108,53.1608,49.8450,86.1468,273.9673,0,U,53395,999,21311,.22743667E-4,.74E-6,0
STARLINK-4524,2022-097J,2026-06-14T09:31:52.176288,15.08834278,.00012953,53.1593,49.9050,88.3620,271.7519,0,U,53396,999,21311,.47083885E-4,.461E-5,0
STARLINK-4515,2022-097K,2026-06-14T09:47:45.816288,15.08836056,.00014087,53.1608,49.8555,85.1501,274.9651,0,U,53397,999,21311,.34285063E-4,.258E-5,0
STARLINK-4512,2022-097L,2026-06-14T09:21:16.034688,15.08835814,.00009886,53.1596,49.9383,125.9398,234.1685,0,U,53398,999,21311,.70013261E-4,.827E-5,0
STARLINK-4528,2022-097M,2026-06-14T09:37:10.077312,15.08833452,.00012749,53.1597,49.8886,90.3847,269.7291,0,U,53399,999,21311,.38291646E-4,.321E-5,0
STARLINK-4520,2022-097N,2026-06-14T09:05:22.551072,15.08831871,.00014448,53.1610,49.9895,88.6413,271.4744,0,U,53400,999,21311,.18317475E-4,.3E-7,0
STARLINK-4525,2022-097P,2026-06-14T09:26:34.391040,15.08832250,.00013955,53.1600,49.9232,88.9680,271.1471,0,U,53401,999,21311,.62234514E-4,.702E-5,0
STARLINK-4499,2022-097Q,2026-06-14T09:00:04.660416,15.08830726,.0001379,53.1606,50.0058,93.0654,267.0495,0,U,53402,999,21311,.1827478E-4,.3E-7,0
STARLINK-4507,2022-097R,2026-06-14T10:05:05.824320,15.08836329,.00012538,53.1595,50.1485,87.3052,272.8083,0,U,53403,999,21311,.26984133E-4,.141E-5,0
STARLINK-4509,2022-097S,2026-06-14T08:36:16.184160,15.08831464,.00013328,53.1593,40.0117,91.3717,268.7428,0,U,53404,999,21324,.28359286E-4,.163E-5,0
STARLINK-4510,2022-097T,2026-06-14T08:54:46.152000,15.08835973,.00013196,53.1602,50.0203,91.6868,268.4274,0,U,53405,999,21311,.36731513E-4,.297E-5,0
STARLINK-4533,2022-097U,2026-06-14T08:19:00.273216,15.08831464,.00014724,53.1608,40.1354,101.5000,258.6157,0,U,53406,999,21324,.13914005E-4,-.67E-6,0
STARLINK-4491,2022-097W,2026-06-14T08:34:55.853760,15.08821415,.00013366,53.1602,40.0907,106.0160,254.0978,0,U,53408,999,21324,.53113877E-4,.557E-5,0
STARLINK-4490,2022-097X,2026-06-14T08:25:39.601056,15.08835519,.00013257,53.1599,30.3041,90.3056,269.8088,0,U,53409,999,21338,.47074083E-4,.461E-5,0
STARLINK-4492,2022-097Y,2026-06-14T08:29:36.136608,15.08835301,.00013599,53.1600,40.0988,109.2909,250.8229,0,U,53410,999,21324,.27427747E-3,.4079E-4,0
STARLINK-4497,2022-097Z,2026-06-14T08:40:12.419040,15.08829258,.00012454,53.1591,40.0659,90.7323,269.3811,0,U,53411,999,21324,.24446305E-4,.101E-5,0
STARLINK-4496,2022-097AA,2026-06-14T08:13:42.143232,15.08833866,.00012486,53.1602,40.1492,85.8787,274.2347,0,U,53412,999,21324,.36019E-7,-.287E-5,0
STARLINK-4500,2022-097AB,2026-06-14T08:24:17.770752,15.08836623,.00014041,53.1592,40.1160,87.1472,272.9680,0,U,53413,999,21324,.49422086E-4,.499E-5,0
STARLINK-4304,2022-097AC,2026-06-13T22:36:05.327712,15.08833005,.00014,53.1605,41.9509,96.1986,263.9165,0,U,53414,999,21317,.17543E-4,-.9E-7,0
STARLINK-4479,2022-097AD,2026-06-13T22:30:48.225024,15.08831476,.0001306,53.1611,41.9655,92.8411,267.2730,0,U,53415,999,21315,-.48877E-4,-.1066E-4,0
STARLINK-4480,2022-097AE,2026-06-13T22:09:34.526592,15.08855994,.0001672,53.1603,41.9860,94.2994,265.8189,0,U,53416,999,21315,-.21524E-3,-.3714E-4,0
STARLINK-4484,2022-097AF,2026-06-13T22:25:29.650944,15.08837300,.0001288,53.1601,41.9841,88.8405,271.2734,0,U,53417,999,21315,.26031E-3,.3857E-4,0
STARLINK-4481,2022-097AG,2026-06-14T08:36:08.735616,15.08838329,.0001266,53.1598,29.6427,88.3413,271.7724,0,U,53418,999,21339,.10032486E-4,-.128E-5,0
STARLINK-4476,2022-097AH,2026-06-13T22:20:11.469120,15.08835722,.0001195,53.1601,42.0026,87.7700,272.3428,0,U,53419,999,21315,.17801E-4,-.5E-7,0
STARLINK-4552,2022-097AJ,2026-06-14T09:11:59.826048,15.08835732,.00014198,53.1605,39.9671,88.7556,271.3598,0,U,53420,999,21322,.12722607E-4,-.86E-6,0
STARLINK-4545,2022-097AK,2026-06-13T22:14:53.264832,15.08838878,.0001353,53.1604,42.0165,91.1239,268.9907,0,U,53421,999,21315,.46261E-4,.448E-5,0
STARLINK-4546,2022-097AL,2026-06-14T09:01:24.087936,15.08833814,.0001158,53.1593,39.9999,90.6023,269.5101,0,U,53422,999,21324,.76758106E-4,.934E-5,0
STARLINK-4539,2022-097AM,2026-06-14T16:00:01.999584,15.16253832,.00020896,53.1599,38.5900,83.8457,46.5393,0,U,53423,999,576,.24923619E-2,.48815E-3,0
STARLINK-4532,2022-097AN,2026-06-14T08:50:48.964992,15.08826587,.00013165,53.1589,40.0337,89.9525,270.1618,0,U,53424,999,21324,.3667637E-5,-.23E-5,0
STARLINK-4531,2022-097AP,2026-06-14T09:04:50.953728,15.09774064,.00014158,53.1604,39.9752,115.7058,244.4080,0,U,53425,999,21321,.61939364E-2,.102317E-2,0
STARLINK-4558,2022-097AQ,2026-06-14T08:20:20.124096,15.08842462,.00008223,53.1586,30.2797,92.0804,268.0281,0,U,53426,999,21337,.11031441E-3,.1468E-4,0
STARLINK-4543,2022-097AT,2026-06-14T08:15:03.304800,15.08825788,.00014542,53.1603,30.2603,87.7890,272.3268,0,U,53429,999,21337,.15463498E-3,.2173E-4,0
STARLINK-4538,2022-097AU,2026-06-14T08:04:26.225760,15.08835271,.00012845,53.1589,30.2159,89.3494,270.7645,0,U,53430,999,21335,.36077611E-4,.286E-5,0
STARLINK-4548,2022-097AV,2026-06-13T21:33:45.235872,15.08835705,.0001291,53.1600,31.7590,87.1674,272.9465,0,U,53431,999,21331,.64011E-4,.731E-5,0
STARLINK-4557,2022-097AW,2026-06-13T21:54:59.753376,15.08826429,.000127,53.1587,31.8419,90.1841,269.9296,0,U,53432,999,21331,-.42301E-4,-.961E-5,0
STARLINK-4549,2022-097AX,2026-06-14T07:59:07.831392,15.08833422,.00011782,53.1584,30.1909,90.0297,270.0830,0,U,53433,999,21335,.49729888E-4,.503E-5,0
STARLINK-4498,2022-097AY,2026-06-14T16:00:01.999584,15.99827094,.00005119,53.2152,359.5490,47.1051,17.1833,0,U,53434,999,587,.1198201E-2,.619138E-2,.18141727E-3
STARLINK-4542,2022-097AZ,2026-06-14T07:32:35.992608,15.08833285,.00012472,53.1598,30.0789,95.0929,265.0205,0,U,53435,999,21335,.702873E-5,-.176E-5,0
STARLINK-4527,2022-097BA,2026-06-13T21:44:22.075584,15.08833095,.0001153,53.1608,31.7963,88.1027,272.0097,0,U,53436,999,21331,.12857E-4,-.83E-6,0
STARLINK-4526,2022-097BC,2026-06-13T21:39:03.572352,15.08838052,.0001302,53.1596,31.7740,87.9911,272.1229,0,U,53438,999,21332,.58065E-4,.636E-5,0
STARLINK-4519,2022-097BD,2026-06-13T21:56:21.524064,15.08832014,.0001268,53.1598,31.8434,96.4931,263.6205,0,U,53439,999,21332,.16843E-4,-.2E-6,0
STARLINK-4415,2022-099A,2026-06-14T14:02:33.535968,15.05657206,.00017289,97.3605,285.8185,97.4273,262.7151,0,U,53465,999,21061,-.89860317E-4,-.1354E-4,0
STARLINK-4398,2022-099B,2026-06-14T16:00:01.999584,15.56439910,.00012681,97.6041,288.6974,91.6630,35.7579,0,U,53466,999,573,.81384857E-2,.621015E-2,0
STARLINK-4394,2022-099C,2026-06-14T16:00:01.999584,15.57084493,.00010141,97.6040,290.0335,88.0434,189.1454,0,U,53467,999,564,.75544873E-2,.587815E-2,0
STARLINK-4400,2022-099D,2026-06-14T07:41:49.368192,15.05594607,.00017037,97.3599,284.4815,145.2740,214.8598,0,U,53468,999,21051,.83129407E-3,.11939E-3,0
